GLOBALSTAR M084 [+]     
1 38040U 11080A   24071.15116179 -.00000091  00000+0  72857-4 0  9993
2 38040  52.0035  18.1227 0000731  88.7651 284.8763 12.62271797564477
GLOBALSTAR M080 [+]     
1 38041U 11080B   24070.60780622 -.00000104  00000+0 -19418-5 0  9994
2 38041  52.0084  21.2219 0000892  79.1003 103.4186 12.62269620564388
GLOBALSTAR M092 [+]     
1 38043U 11080D   24071.20594181 -.00000109  00000+0 -26837-4 0  9993
2 38043  52.0088  65.1503 0000519 119.0670 322.5249 12.62276796563696
GLOBALSTAR M086 [+]     
1 38045U 11080F   24070.88822101 -.00000072  00000+0  17687-3 0  9994
2 38045  51.9917 330.6887 0001375  37.1980  40.8322 12.62268076565154
GLOBALSTAR M097 [+]     
1 39072U 13005A   24070.73911082 -.00000105  00000+0 -83836-5 0  9994
2 39072  52.0025 245.2170 0000683  75.8381 284.2561 12.62261653512287
GLOBALSTAR M093 [+]     
1 39073U 13005B   24071.18765958 -.00000109  00000+0 -29893-4 0  9990
2 39073  51.9788 237.8947 0000634  71.4758 288.6177 12.62261983512419
